STARLINK-36070          
1 66864U 25281S   25363.00001157 -.00077978  00000+0 -13356-2 0  9990
2 66864  43.0006  24.4972 0001210 257.9912 103.7513 15.50600985  4038
STARLINK-36117          
1 66865U 25281T   25363.00001157 -.00069425  00000+0 -11872-2 0  9990
2 66865  43.0006  24.4879 0001526 257.3414 108.2344 15.50598911  3997
STARLINK-36126          
1 66866U 25281U   25363.00001157 -.00062557  00000+0 -10686-2 0  9992
2 66866  43.0006  24.4828 0001161 261.3979 106.1023 15.50590859  4038
STARLINK-36101          
1 66867U 25281V   25363.00001157 -.00083705  00000+0 -14349-2 0  9991
2 66867  43.0005  24.4781 0001217 259.0314 110.3789 15.50606169  3830
STARLINK-36108          
1 66868U 25281W   25363.00001157 -.00076717  00000+0 -13136-2 0  9990
2 66868  43.0006  24.4729 0001381 258.7943 112.5332 15.50601835  3833
STARLINK-36092          
1 66869U 25281X   25363.00001157 -.00079360  00000+0 -13595-2 0  9997
2 66869  43.0006  24.4681 0001327 261.7386 111.5048 15.50603649  4037
STARLINK-36114          
1 66870U 25281Y   25363.00001157 -.00068437  00000+0 -11703-2 0  9991
2 66870  43.0006  24.4631 0001166 262.3281 112.8390 15.50594714  3895
STARLINK-36095          
1 66871U 25281Z   25363.00001157 -.00074160  00000+0 -12694-2 0  9992
2 66871  43.0006  24.4580 0001007 262.6361 114.4457 15.50599207  4036
STARLINK-36082          
1 66872U 25281AA  25363.12545825  .00111834  00000+0  18767-2 0  9996
2 66872  43.0009  23.7199 0005545 301.2339  58.7978 15.50689916  5366
STARLINK-36128          
1 66873U 25281AB  25363.00001157 -.00078742  00000+0 -13489-2 0  9997
2 66873  43.0005  24.4379 0001220 259.8433 124.9087 15.50600475  4033
STARLINK-36129          
1 66874U 25281AC  25363.12511152  .00101206  00000+0  17042-2 0  9991
2 66874  43.0002  23.7172 0003050 289.1717  70.8813 15.50650274  5363
STARLINK-36053          
1 66875U 25281AD  25363.12408392  .00151378  00000+0  25263-2 0  9992
2 66875  42.9992  23.7057 0002891 285.6362  74.4179 15.50691398  5313
STARLINK-35702          
1 66876U 25281AE  25363.58336806 -.00057001  00000+0 -97238-3 0  9995
2 66876  43.0005  21.0339 0001346 282.3325 120.7375 15.50593550  4124
ZQ-3 R/B                
1 66877U 25282A   25363.26803020  .01001419  80923-5  15712-3 0  9995
2 66877  56.9486 352.7820 0639997 249.3494 103.7816 14.93244389  3836
STARLINK-35866          
1 66878U 25283A   25363.58336806 -.00108152  00000+0 -19610-2 0  9990
2 66878  53.1590 350.6167 0002177  88.9725 109.6232 15.49341441  5132
STARLINK-35749          
1 66879U 25283B   25363.58336806 -.00101068  00000+0 -18307-2 0  9992
2 66879  53.1589 350.6083 0001502  86.8851 115.5433 15.49338925  5138
STARLINK-35844          
1 66880U 25283C   25363.58336806 -.00095870  00000+0 -17350-2 0  9994
2 66880  53.1590 350.6133 0001816  86.9072 113.6042 15.49336931  5132
STARLINK-35860          
1 66881U 25283D   25363.58336806 -.00126461  00000+0 -22980-2 0  9991
2 66881  53.1589 350.6041 0001481  86.2682 118.0588 15.49365269  5137
STARLINK-35912          
1 66882U 25283E   25363.58336806 -.00095383  00000+0 -17261-2 0  9996
2 66882  53.1589 350.6012 0001943  87.1438 119.1184 15.49336443  5134
STARLINK-35947          
1 66883U 25283F   25363.58336806 -.00096409  00000+0 -17450-2 0  9997
2 66883  53.1589 350.5977 0001773  85.0385 123.1403 15.49336553  5189
STARLINK-36057          
1 66884U 25283G   25363.58336806 -.00121392  00000+0 -22043-2 0  9992
2 66884  53.1589 350.5889 0001686  90.9921 121.0034 15.49362417  5136
STARLINK-35954          
1 66885U 25283H   25363.58336806 -.00124543  00000+0 -22625-2 0  9990
2 66885  53.1589 350.5930 0001762  90.2399 119.8389 15.49364021  5132
STARLINK-35900          
1 66886U 25283J   25363.58336806 -.00099275  00000+0 -17977-2 0  9998
2 66886  53.1588 350.5847 0001856  89.3978 124.5324 15.49337471  5136
STARLINK-35925          
1 66887U 25283K   25363.58336806 -.00094514  00000+0 -17102-2 0  9990
2 66887  53.1589 350.5810 0001774  92.2330 123.6130 15.49335661  5136
STARLINK-35919          
1 66888U 25283L   25363.58336806 -.00095362  00000+0 -17257-2 0  9994
2 66888  53.1589 350.5766 0001734  87.7922 129.9703 15.49336434  5133
STARLINK-35852          
1 66889U 25283M   25363.58336806 -.00123442  00000+0 -22421-2 0  9995
2 66889  53.1588 350.5722 0002152  84.7790 134.8870 15.49361957  5138
STARLINK-35885          
1 66890U 25283N   25363.58336806 -.00108722  00000+0 -19715-2 0  9993
2 66890  53.1588 350.5686 0001864  83.3855 138.2092 15.49343633  5130
STARLINK-35855          
1 66891U 25283P   25363.58336806 -.00104581  00000+0 -18955-2 0  9998
2 66891  53.1587 350.5643 0001413  84.7364 138.7798 15.49338918  5131
STARLINK-35883          
1 66892U 25283Q   25363.58336806 -.00094892  00000+0 -17172-2 0  9992
2 66892  53.1588 350.5601 0001399  80.2738 145.1561 15.49335735  5073
STARLINK-36033          
1 66893U 25283R   25363.58336806 -.00039521  00000+0 -70563-3 0  9995
2 66893  53.1589 350.5560 0001323  96.1869 131.1522 15.49328139  5136
STARLINK-35718          
1 66894U 25283S   25363.58336806 -.00128307  00000+0 -23338-2 0  9994
2 66894  53.1588 350.5529 0001235  80.9710 148.3063 15.49346699  5130
STARLINK-35971          
1 66895U 25283T   25363.58336806 -.00031476  00000+0 -56012-3 0  9991
2 66895  53.1587 350.5425 0001363  83.7180 149.3845 15.49310220  5139
STARLINK-35791          
1 66896U 25283U   25363.58336806 -.00157865  00000+0 -28830-2 0  9999
2 66896  53.1586 350.5469 0001249  81.5321 149.6732 15.49357605  5139
STARLINK-36079          
1 66897U 25283V   25363.58336806 -.00094005  00000+0 -17010-2 0  9994
2 66897  53.1589 350.5392 0001214  90.0467 144.9710 15.49334528  5139
STARLINK-36065          
1 66898U 25283W   25363.58336806 -.00178542  00000+0 -32691-2 0  9996
2 66898  53.1588 350.5353 0001139  78.6855 158.2655 15.49368105  5139
STARLINK-36064          
1 66899U 25283X   25363.58336806 -.00101316  00000+0 -18355-2 0  9993
2 66899  53.1586 350.5313 0001239  92.7140 146.1377 15.49336284  5072
STARLINK-36074          
1 66900U 25283Y   25363.58336806 -.00142770  00000+0 -25991-2 0  9999
2 66900  53.1587 350.5275 0001520  95.5771 145.1460 15.49383624  5136
STARLINK-36043          
1 66901U 25283Z   25363.58336806 -.00054753  00000+0 -98292-3 0  9998
2 66901  53.1587 350.5229 0001179  81.9544 160.7359 15.49319562  5133
STARLINK-35983          
1 66902U 25283AA  25363.58336806 -.00089815  00000+0 -16242-2 0  9990
2 66902  53.1586 350.5192 0001181  86.3829 158.2246 15.49330675  5135
STARLINK-36077          
1 66903U 25283AB  25363.58336806 -.00107132  00000+0 -19426-2 0  9991
2 66903  53.1586 350.5155 0001165  86.0265 160.4983 15.49338307  5131
STARLINK-36059          
1 66904U 25283AC  25363.58336806 -.00114162  00000+0 -20720-2 0  9992
2 66904  53.1587 350.5105 0001355  95.3317 153.1034 15.49343997  5137
STARLINK-36075          
1 66905U 25283AD  25363.58336806 -.00355114  00000+0 -66384-2 0  9993
2 66905  53.1586 350.5072 0001436  96.5700 153.7481 15.49446721  5130
1998-067XS              
1 66906U 98067XS  25363.48136637  .00038202  00000+0  63864-3 0  9998
2 66906  51.6326  59.3347 0002617 291.4544  68.6166 15.51524554  4215
1998-067XT              
1 66907U 98067XT  25363.46279640  .00093030  00000+0  14194-2 0  9990
2 66907  51.6312  59.2117 0003831 329.8125  30.2644 15.53668810  4217
1998-067XU              
1 66908U 98067XU  25363.46161730  .00081056  00000+0  12402-2 0  9996
2 66908  51.6310  59.2030 0003915 326.0773  33.9966 15.53652804  4214
SILVERSAT               
1 66909U 98067XV  25363.52341790  .00105899  00000+0  15885-2 0  9990
2 66909  51.6308  58.8658 0003908 333.7603  26.3189 15.54074653  4227
1998-067XW              
1 66910U 98067XW  25363.45777360  .00094181  00000+0  14242-2 0  9997
2 66910  51.6309  59.1775 0003543 303.1215  56.9435 15.53909102  4216
1998-067XX              
1 66911U 98067XX  25363.38802422  .00113700  00000+0  16734-2 0  9995
2 66911  51.6308  59.4626 0003279 314.1588  45.9133 15.54563017  4197
1998-067XY              
1 66912U 98067XY  25363.21210295  .00069692  00000+0  11008-2 0  9998
2 66912  51.6316  60.5380 0003970 318.2962  41.7725 15.52839707  4164
2025-284A               
1 66913U 25284A   25357.10748193  .00008748  00000+0  55264-3 0  9992
2 66913  80.4035 116.7336 0013475 259.6514 100.3189 15.08893564  2694
2025-284B               
1 66914U 25284B   25350.28554881  .00008068  00000+0  38445-3 0  9991
2 66914  80.4045 125.2713 0008179 234.9626 125.0834 15.18985981  1668
HULIANWANG DIGUI-105    
1 66915U 25285A   25363.58030043  .00000081  00000+0  15529-3 0  9994
2 66915  50.0056  48.7459 0001867 336.4574  23.6243 14.00308460  3274
HULIANWANG DIGUI-106    
1 66916U 25285B   25361.43773301  .00000055  00000+0  13439-3 0  9997
2 66916  50.0052  57.4085 0004948 327.7035  32.3565 14.01851189  2973
HULIANWANG DIGUI-107    
1 66917U 25285C   25363.50392574 -.00000050  00000+0  66934-4 0  9992
2 66917  50.0018  49.0009 0001248 358.4622   1.6277 14.00477346  3262
HULIANWANG DIGUI-108    
1 66918U 25285D   25363.50306169 -.00000037  00000+0  75918-4 0  9995
2 66918  50.0003  49.0121 0000371 262.1926  97.8934 14.00640187  3268
HULIANWANG DIGUI-109    
1 66919U 25285E   25363.57205847 -.00000036  00000+0  75903-4 0  9997
2 66919  50.0083  48.7075 0001835 347.4337  12.6520 14.00815618  3270
HULIANWANG DIGUI-110    
1 66920U 25285F   25363.49974962  .00000285  00000+0  28909-3 0  9999
2 66920  50.0128  49.0001 0000646 359.2924   0.7978 14.00978922  3269
HULIANWANG DIGUI-111    
1 66921U 25285G   25363.64132478 -.00000119  00000+0  20995-4 0  9990
2 66921  50.0126  48.4205 0000193 252.2703 107.8180 14.01033684  3285
HULIANWANG DIGUI-112    
1 66922U 25285H   25363.56848205  .00000166  00000+0  20916-3 0  9997
2 66922  50.0104  48.6917 0000482 351.5863   8.5033 14.01282680  3270
